HAWK-5A                 
1 52757U 22057AB  26199.96024250  .00010443  00000+0  17278-3 0  9996
2 52757  97.6637   0.8916 0003021 320.0263  40.0766 15.52406525231275
HAWK-6B                 
1 55324U 23011A   26199.98473906  .00002480  00000+0  11084-3 0  9999
2 55324  40.4978 166.5679 0004544 259.8721 100.1576 15.23174312192690
HAWK-6C                 
1 55326U 23011C   26200.24636893  .00002177  00000+0  98330-4 0  9992
2 55326  40.4967 161.8766 0005020 255.4049 104.6204 15.23174872192744
HAWK-6A                 
1 55327U 23011D   26200.24640668  .00002282  00000+0  10268-3 0  9998
2 55327  40.4978 163.5036 0004692 252.4511 107.5786 15.23175130192746
HAWK-7A                 
1 56191U 23054P   26200.20921184  .00002801  00000+0  10628-3 0  9993
2 56191  97.2654  86.7319 0001078 306.7519  53.3622 15.27656315181910
HAWK-7B                 
1 56193U 23054R   26200.20914690  .00002837  00000+0  10764-3 0  9999
2 56193  97.2680  85.0071 0000889   7.1924 352.9328 15.27654842181913
HAWK-7C                 
1 56200U 23054Y   26200.20901721  .00002780  00000+0  10552-3 0  9991
2 56200  97.2656  85.7659 0000515 330.7337  29.3873 15.27657234181911
